{"type": "FeatureCollection", "features": [ {"type": "Feature", "properties": {"norad_id": 40534, "name": "GPS BIIF-9  (PRN 26)", "group": "gps-ops", "lat": 51.432054305894745, "lon": -37.755225699835904, "alt_km": 20049.17394884598, "timestamp": "2025-12-09T05:43:20.984356+00:00", "meta": {"OBJECT_NAME": "GPS BIIF-9  (PRN 26)", "OBJECT_ID": "2015-013A", "EPOCH": "2025-12-08T14:24:53.320032", "MEAN_MOTION": 2.00562777, "ECCENTRICITY": 0.0106864, "INCLINATION": 53.1983, "RA_OF_ASC_NODE": 212.0617, "ARG_OF_PERICENTER": 38.3765, "MEAN_ANOMALY": 322.4632, "EPHEMERIS_TYPE": 0, "CLASSIFICATION_TYPE": "U", "NORAD_CAT_ID": 40534, "ELEMENT_SET_NO": 999, "REV_AT_EPOCH": 7800, "BSTAR": 0, "MEAN_MOTION_DOT": 2.2e-07, "MEAN_MOTION_DDOT": 0}, "tle": {"line1": "1 40534U 15013A   25342.60061713  .00000022  00000+0  00000+0 0  9998", "line2": "2 40534  53.1983 212.0617 0106864  38.3765 322.4632  2.00562777 78006"}}, "geometry": {"type": "Point", "coordinates": [-37.755225699835904, 51.432054305894745]}}, {"type": "Feature", "properties": {"norad_id": 40730, "name": "GPS BIIF-10 (PRN 08)", "group": "gps-ops", "lat": -13.106461130019174, "lon": -94.7795115015999, "alt_km": 19967.05666744042, "timestamp": "2025-12-09T05:43:20.984379+00:00", "meta": {"OBJECT_NAME": "GPS BIIF-10 (PRN 08)", "OBJECT_ID": "2015-033A", "EPOCH": "2025-12-08T18:17:13.153056", "MEAN_MOTION": 2.00565724, "ECCENTRICITY": 0.0110701, "INCLINATION": 54.1342, "RA_OF_ASC_NODE": 274.9365, "ARG_OF_PERICENTER": 26.7113, "MEAN_ANOMALY": 333.8722, "EPHEMERIS_TYPE": 0, "CLASSIFICATION_TYPE": "U", "NORAD_CAT_ID": 40730, "ELEMENT_SET_NO": 999, "REV_AT_EPOCH": 7617, "BSTAR": 0, "MEAN_MOTION_DOT": -4.4e-07, "MEAN_MOTION_DDOT": 0}, "tle": {"line1": "1 40730U 15033A   25342.76195779 -.00000044  00000+0  00000+0 0  9990", "line2": "2 40730  54.1342 274.9365 0110701  26.7113 333.8722  2.00565724 76171"}}, "geometry": {"type": "Point", "coordinates": [-94.7795115015999, -13.106461130019174]}}, {"type": "Feature", "properties": {"norad_id": 41019, "name": "GPS BIIF-11 (PRN 10)", "group": "gps-ops", "lat": -45.592125599516216, "lon": -3.694452625805901, "alt_km": 20091.27153848544, "timestamp": "2025-12-09T05:43:20.984401+00:00", "meta": {"OBJECT_NAME": "GPS BIIF-11 (PRN 10)", "OBJECT_ID": "2015-062A", "EPOCH": "2025-12-08T07:44:45.982752", "MEAN_MOTION": 2.00566979, "ECCENTRICITY": 0.01106922, "INCLINATION": 56.829, "RA_OF_ASC_NODE": 38.1732, "ARG_OF_PERICENTER": 229.8078, "MEAN_ANOMALY": 129.2726, "EPHEMERIS_TYPE": 0, "CLASSIFICATION_TYPE": "U", "NORAD_CAT_ID": 41019, "ELEMENT_SET_NO": 999, "REV_AT_EPOCH": 7400, "BSTAR": 0, "MEAN_MOTION_DOT": -7.7e-07, "MEAN_MOTION_DDOT": 0}, "tle": {"line1": "1 41019U 15062A   25342.32275443 -.00000077  00000+0  00000+0 0  9998", "line2": "2 41019  56.8290  38.1732 0110692 229.8078 129.2726  2.00566979 74000"}}, "geometry": {"type": "Point", "coordinates": [-3.694452625805901, -45.592125599516216]}}, {"type": "Feature", "properties": {"norad_id": 41328, "name": "GPS BIIF-12 (PRN 32)", "group": "gps-ops", "lat": -45.89132110287707, "lon": -37.677208733303914, "alt_km": 19944.004640976356, "timestamp": "2025-12-09T05:43:20.984417+00:00", "meta": {"OBJECT_NAME": "GPS BIIF-12 (PRN 32)", "OBJECT_ID": "2016-007A", "EPOCH": "2025-12-08T09:43:25.720320", "MEAN_MOTION": 2.0056088, "ECCENTRICITY": 0.0091947, "INCLINATION": 55.4038, "RA_OF_ASC_NODE": 97.0291, "ARG_OF_PERICENTER": 243.4665, "MEAN_ANOMALY": 115.5721, "EPHEMERIS_TYPE": 0, "CLASSIFICATION_TYPE": "U", "NORAD_CAT_ID": 41328, "ELEMENT_SET_NO": 999, "REV_AT_EPOCH": 7201, "BSTAR": 0, "MEAN_MOTION_DOT": 1e-08, "MEAN_MOTION_DDOT": 0}, "tle": {"line1": "1 41328U 16007A   25342.40515880  .00000001  00000+0  00000+0 0  9998", "line2": "2 41328  55.4038  97.0291 0091947 243.4665 115.5721  2.00560880 72014"}}, "geometry": {"type": "Point", "coordinates": [-37.677208733303914, -45.89132110287707]}}, {"type": "Feature", "properties": {"norad_id": 43873, "name": "GPS BIII-1  (PRN 04)", "group": "gps-ops", "lat": 35.596184120511175, "lon": -109.69807065632715, "alt_km": 20128.516970304103, "timestamp": "2025-12-09T05:43:20.984431+00:00", "meta": {"OBJECT_NAME": "GPS BIII-1  (PRN 04)", "OBJECT_ID": "2018-109A", "EPOCH": "2025-12-08T13:41:32.071776", "MEAN_MOTION": 2.00553358, "ECCENTRICITY": 0.003721, "INCLINATION": 55.5654, "RA_OF_ASC_NODE": 99.7112, "ARG_OF_PERICENTER": 194.8122, "MEAN_ANOMALY": 178.3596, "EPHEMERIS_TYPE": 0, "CLASSIFICATION_TYPE": "U", "NORAD_CAT_ID": 43873, "ELEMENT_SET_NO": 999, "REV_AT_EPOCH": 5125, "BSTAR": 0, "MEAN_MOTION_DOT": 6e-08, "MEAN_MOTION_DDOT": 0}, "tle": {"line1": "1 43873U 18109A   25342.57051009  .00000006  00000+0  00000+0 0  9991", "line2": "2 43873  55.5654  99.7112 0037210 194.8122 178.3596  2.00553358 51259"}}, "geometry": {"type": "Point", "coordinates": [-109.69807065632715, 35.596184120511175]}}, {"type": "Feature", "properties": {"norad_id": 44506, "name": "GPS BIII-2  (PRN 18)", "group": "gps-ops", "lat": 26.02810112865759, "lon": -1.8625941454039956, "alt_km": 20327.75553798473, "timestamp": "2025-12-09T05:43:20.984444+00:00", "meta": {"OBJECT_NAME": "GPS BIII-2  (PRN 18)", "OBJECT_ID": "2019-056A", "EPOCH": "2025-12-07T10:30:03.799008", "MEAN_MOTION": 2.00565766, "ECCENTRICITY": 0.00577762, "INCLINATION": 55.723, "RA_OF_ASC_NODE": 338.7627, "ARG_OF_PERICENTER": 198.4737, "MEAN_ANOMALY": 333.4267, "EPHEMERIS_TYPE": 0, "CLASSIFICATION_TYPE": "U", "NORAD_CAT_ID": 44506, "ELEMENT_SET_NO": 999, "REV_AT_EPOCH": 4622, "BSTAR": 0, "MEAN_MOTION_DOT": -8.3e-07, "MEAN_MOTION_DDOT": 0}, "tle": {"line1": "1 44506U 19056A   25341.43754397 -.00000083  00000+0  00000+0 0  9997", "line2": "2 44506  55.7230 338.7627 0057776 198.4737 333.4267  2.00565766 46229"}}, "geometry": {"type": "Point", "coordinates": [-1.8625941454039956, 26.02810112865759]}}, {"type": "Feature", "properties": {"norad_id": 45854, "name": "GPS BIII-3  (PRN 23)", "group": "gps-ops", "lat": -19.16269115064708, "lon": 23.065879724051435, "alt_km": 20295.036739955263, "timestamp": "2025-12-09T05:43:20.984455+00:00", "meta": {"OBJECT_NAME": "GPS BIII-3  (PRN 23)", "OBJECT_ID": "2020-041A", "EPOCH": "2025-12-08T06:52:29.701632", "MEAN_MOTION": 2.00561767, "ECCENTRICITY": 0.0060382, "INCLINATION": 56.544, "RA_OF_ASC_NODE": 36.3588, "ARG_OF_PERICENTER": 203.2609, "MEAN_ANOMALY": 165.7518, "EPHEMERIS_TYPE": 0, "CLASSIFICATION_TYPE": "U", "NORAD_CAT_ID": 45854, "ELEMENT_SET_NO": 999, "REV_AT_EPOCH": 4021, "BSTAR": 0, "MEAN_MOTION_DOT": -7.9e-07, "MEAN_MOTION_DDOT": 0}, "tle": {"line1": "1 45854U 20041A   25342.28645488 -.00000079  00000+0  00000+0 0  9999", "line2": "2 45854  56.5440  36.3588 0060382 203.2609 165.7518  2.00561767 40210"}}, "geometry": {"type": "Point", "coordinates": [23.065879724051435, -19.16269115064708]}}, {"type": "Feature", "properties": {"norad_id": 46826, "name": "GPS BIII-4  (PRN 14)", "group": "gps-ops", "lat": -39.67382528439888, "lon": -178.54239283656767, "alt_km": 20228.59992367424, "timestamp": "2025-12-09T05:43:20.984468+00:00", "meta": {"OBJECT_NAME": "GPS BIII-4  (PRN 14)", "OBJECT_ID": "2020-078A", "EPOCH": "2025-12-08T07:24:38.694816", "MEAN_MOTION": 2.00566757, "ECCENTRICITY": 0.0064564, "INCLINATION": 54.0162, "RA_OF_ASC_NODE": 218.5209, "ARG_OF_PERICENTER": 203.3462, "MEAN_ANOMALY": 152.6425, "EPHEMERIS_TYPE": 0, "CLASSIFICATION_TYPE": "U", "NORAD_CAT_ID": 46826, "ELEMENT_SET_NO": 999, "REV_AT_EPOCH": 3767, "BSTAR": 0, "MEAN_MOTION_DOT": 2e-07, "MEAN_MOTION_DDOT": 0}, "tle": {"line1": "1 46826U 20078A   25342.30878119  .00000020  00000+0  00000+0 0  9996", "line2": "2 46826  54.0162 218.5209 0064564 203.3462 152.6425  2.00566757 37674"}}, "geometry": {"type": "Point", "coordinates": [-178.54239283656767, -39.67382528439888]}}, {"type": "Feature", "properties": {"norad_id": 48859, "name": "GPS BIII-5  (PRN 11)", "group": "gps-ops", "lat": 37.24362063799411, "lon": 128.2488579159626, "alt_km": 20190.90636690521, "timestamp": "2025-12-09T05:43:20.984480+00:00", "meta": {"OBJECT_NAME": "GPS BIII-5  (PRN 11)", "OBJECT_ID": "2021-054A", "EPOCH": "2025-12-08T04:14:32.423424", "MEAN_MOTION": 2.00553628, "ECCENTRICITY": 0.0024681, "INCLINATION": 55.2581, "RA_OF_ASC_NODE": 340.1367, "ARG_OF_PERICENTER": 233.3965, "MEAN_ANOMALY": 212.8622, "EPHEMERIS_TYPE": 0, "CLASSIFICATION_TYPE": "U", "NORAD_CAT_ID": 48859, "ELEMENT_SET_NO": 999, "REV_AT_EPOCH": 3292, "BSTAR": 0, "MEAN_MOTION_DOT": -8.6e-07, "MEAN_MOTION_DDOT": 0}, "tle": {"line1": "1 48859U 21054A   25342.17676416 -.00000086  00000+0  00000+0 0  9993", "line2": "2 48859  55.2581 340.1367 0024681 233.3965 212.8622  2.00553628 32928"}}, "geometry": {"type": "Point", "coordinates": [128.2488579159626, 37.24362063799411]}}, {"type": "Feature", "properties": {"norad_id": 55268, "name": "GPS BIII-6  (PRN 28)", "group": "gps-ops", "lat": 3.9240150423598936, "lon": -26.769415497275517, "alt_km": 20192.253243083276, "timestamp": "2025-12-09T05:43:20.984494+00:00", "meta": {"OBJECT_NAME": "GPS BIII-6  (PRN 28)", "OBJECT_ID": "2023-009A", "EPOCH": "2025-12-08T05:52:26.989248", "MEAN_MOTION": 2.00555991, "ECCENTRICITY": 0.0003615, "INCLINATION": 55.1046, "RA_OF_ASC_NODE": 156.0217, "ARG_OF_PERICENTER": 356.7859, "MEAN_ANOMALY": 180.9144, "EPHEMERIS_TYPE": 0, "CLASSIFICATION_TYPE": "U", "NORAD_CAT_ID": 55268, "ELEMENT_SET_NO": 999, "REV_AT_EPOCH": 2141, "BSTAR": 0, "MEAN_MOTION_DOT": 5.9e-07, "MEAN_MOTION_DDOT": 0}, "tle": {"line1": "1 55268U 23009A   25342.24475682  .00000059  00000+0  00000+0 0  9996", "line2": "2 55268  55.1046 156.0217 0003615 356.7859 180.9144  2.00555991 21410"}}, "geometry": {"type": "Point", "coordinates": [-26.769415497275517, 3.9240150423598936]}}]}